[{"OBJECT_NAME":"STARLINK-35343","OBJECT_ID":"2026-003A","EPOCH":"2026-03-09T11:53:22.093440","MEAN_MOTION":15.27593914,"ECCENTRICITY":0.00016716,"INCLINATION":43.0002,"RA_OF_ASC_NODE":228.2092,"ARG_OF_PERICENTER":271.3939,"MEAN_ANOMALY":88.6721,"EPHEMERIS_TYPE":0,"CLASSIFICATION_TYPE":"U","NORAD_CAT_ID":67334,"ELEMENT_SET_NO":999,"REV_AT_EPOCH":879,"BSTAR":0.0012290218,"MEAN_MOTION_DOT":0.00033727,"MEAN_MOTION_DDOT":0},{"OBJECT_NAME":"PEGASUS R\/B","OBJECT_ID":"2007-015B","EPOCH":"2026-03-09T10:58:33.801024","MEAN_MOTION":15.26741121,"ECCENTRICITY":0.00105976,"INCLINATION":97.9168,"RA_OF_ASC_NODE":31.3919,"ARG_OF_PERICENTER":317.6341,"MEAN_ANOMALY":42.4077,"EPHEMERIS_TYPE":0,"CLASSIFICATION_TYPE":"U","NORAD_CAT_ID":31305,"ELEMENT_SET_NO":999,"REV_AT_EPOCH":3383,"BSTAR":0.00044093522,"MEAN_MOTION_DOT":0.00011537,"MEAN_MOTION_DDOT":0}]
